ORBCOMM FM37 [-]        
1 33064U 08031E   23294.52569792  .00002426  00000+0  38449-3 0  9997
2 33064  48.4415 327.4009 0006541 306.8499 207.0686 14.75267406824649
ORBCOMM FM40 [-]        
1 33065U 08031F   23294.82387721  .00003017  00000+0  45932-3 0  9993
2 33065  48.4436 317.1215 0007929 316.1908 213.8479 14.76342551824706
VESSELSAT 1 [-]         
1 37840U 11058C   23295.25164508  .00000435  00000+0  93111-4 0  9999
2 37840  19.9606 147.4357 0013736  25.2149 334.8924 14.11073996621125
ORBCOMM FM109 [+]       
1 40086U 14040A   23295.41652989  .00001157  00000+0  29793-3 0  9998
2 40086  47.0053 342.7446 0001150  30.1982 329.8969 14.56012684493132
ORBCOMM FM107 [+]       
1 40087U 14040B   23294.83316834  .00001339  00000+0  33882-3 0  9996
2 40087  47.0074 346.4245 0001581 333.3400  26.7403 14.56012175493002
ORBCOMM FM106 [-]       
1 40088U 14040C   23295.07935709  .00001738  00000+0  34547-3 0  9994
2 40088  47.0600 213.0587 0017760 147.4705 212.7283 14.66137267494942
ORBCOMM FM111 [-]       
1 40089U 14040D   23294.84417035  .00002926  00000+0  40415-3 0  9997
2 40089  47.0033 138.4699 0033810 192.4510 167.5552 14.80188682500526
ORBCOMM FM104 [-]       
1 40090U 14040E   23294.53339032  .00001109  00000+0  29586-3 0  9993
2 40090  47.0074  14.5367 0017628 322.7408  37.2252 14.54562926492531
