<?xml version="1.0" encoding="UTF-8"?>
<ndm xmlns:xsi="http://www.w3.org/2001/XMLSchema-instance" xsi:noNamespaceSchemaLocation="https://sanaregistry.org/r/ndmxml_unqualified/ndmxml-2.0.0-master-2.0.xsd">
<omm id="CCSDS_OMM_VERS" version="2.0">
<header><CREATION_DATE/><ORIGINATOR/></header><body><segment><metadata><OBJECT_NAME>ORBCOMM FM37 [-]</OBJECT_NAME><OBJECT_ID>2008-031E</OBJECT_ID><CENTER_NAME>EARTH</CENTER_NAME><REF_FRAME>TEME</REF_FRAME><TIME_SYSTEM>UTC</TIME_SYSTEM><MEAN_ELEMENT_THEORY>SGP4</MEAN_ELEMENT_THEORY></metadata><data><meanElements><EPOCH>2023-10-21T12:37:00.300288</EPOCH><MEAN_MOTION>14.75267406</MEAN_MOTION><ECCENTRICITY>.0006541</ECCENTRICITY><INCLINATION>48.4415</INCLINATION><RA_OF_ASC_NODE>327.4009</RA_OF_ASC_NODE><ARG_OF_PERICENTER>306.8499</ARG_OF_PERICENTER><MEAN_ANOMALY>207.0686</MEAN_ANOMALY></meanElements><tleParameters><EPHEMERIS_TYPE>0</EPHEMERIS_TYPE><CLASSIFICATION_TYPE>U</CLASSIFICATION_TYPE><NORAD_CAT_ID>33064</NORAD_CAT_ID><ELEMENT_SET_NO>999</ELEMENT_SET_NO><REV_AT_EPOCH>82464</REV_AT_EPOCH><BSTAR>.38449E-3</BSTAR><MEAN_MOTION_DOT>.2426E-4</MEAN_MOTION_DOT><MEAN_MOTION_DDOT>0</MEAN_MOTION_DDOT></tleParameters></data></segment></body></omm>
<omm id="CCSDS_OMM_VERS" version="2.0">
<header><CREATION_DATE/><ORIGINATOR/></header><body><segment><metadata><OBJECT_NAME>ORBCOMM FM40 [-]</OBJECT_NAME><OBJECT_ID>2008-031F</OBJECT_ID><CENTER_NAME>EARTH</CENTER_NAME><REF_FRAME>TEME</REF_FRAME><TIME_SYSTEM>UTC</TIME_SYSTEM><MEAN_ELEMENT_THEORY>SGP4</MEAN_ELEMENT_THEORY></metadata><data><meanElements><EPOCH>2023-10-21T19:46:22.990944</EPOCH><MEAN_MOTION>14.76342551</MEAN_MOTION><ECCENTRICITY>.0007929</ECCENTRICITY><INCLINATION>48.4436</INCLINATION><RA_OF_ASC_NODE>317.1215</RA_OF_ASC_NODE><ARG_OF_PERICENTER>316.1908</ARG_OF_PERICENTER><MEAN_ANOMALY>213.8479</MEAN_ANOMALY></meanElements><tleParameters><EPHEMERIS_TYPE>0</EPHEMERIS_TYPE><CLASSIFICATION_TYPE>U</CLASSIFICATION_TYPE><NORAD_CAT_ID>33065</NORAD_CAT_ID><ELEMENT_SET_NO>999</ELEMENT_SET_NO><REV_AT_EPOCH>82470</REV_AT_EPOCH><BSTAR>.45932E-3</BSTAR><MEAN_MOTION_DOT>.3017E-4</MEAN_MOTION_DOT><MEAN_MOTION_DDOT>0</MEAN_MOTION_DDOT></tleParameters></data></segment></body></omm>
<omm id="CCSDS_OMM_VERS" version="2.0">
<header><CREATION_DATE/><ORIGINATOR/></header><body><segment><metadata><OBJECT_NAME>VESSELSAT 1 [-]</OBJECT_NAME><OBJECT_ID>2011-058C</OBJECT_ID><CENTER_NAME>EARTH</CENTER_NAME><REF_FRAME>TEME</REF_FRAME><TIME_SYSTEM>UTC</TIME_SYSTEM><MEAN_ELEMENT_THEORY>SGP4</MEAN_ELEMENT_THEORY></metadata><data><meanElements><EPOCH>2023-10-22T06:02:22.134912</EPOCH><MEAN_MOTION>14.11073996</MEAN_MOTION><ECCENTRICITY>.0013736</ECCENTRICITY><INCLINATION>19.9606</INCLINATION><RA_OF_ASC_NODE>147.4357</RA_OF_ASC_NODE><ARG_OF_PERICENTER>25.2149</ARG_OF_PERICENTER><MEAN_ANOMALY>334.8924</MEAN_ANOMALY></meanElements><tleParameters><EPHEMERIS_TYPE>0</EPHEMERIS_TYPE><CLASSIFICATION_TYPE>U</CLASSIFICATION_TYPE><NORAD_CAT_ID>37840</NORAD_CAT_ID><ELEMENT_SET_NO>999</ELEMENT_SET_NO><REV_AT_EPOCH>62112</REV_AT_EPOCH><BSTAR>.93111E-4</BSTAR><MEAN_MOTION_DOT>.435E-5</MEAN_MOTION_DOT><MEAN_MOTION_DDOT>0</MEAN_MOTION_DDOT></tleParameters></data></segment></body></omm>
<omm id="CCSDS_OMM_VERS" version="2.0">
<header><CREATION_DATE/><ORIGINATOR/></header><body><segment><metadata><OBJECT_NAME>ORBCOMM FM109 [+]</OBJECT_NAME><OBJECT_ID>2014-040A</OBJECT_ID><CENTER_NAME>EARTH</CENTER_NAME><REF_FRAME>TEME</REF_FRAME><TIME_SYSTEM>UTC</TIME_SYSTEM><MEAN_ELEMENT_THEORY>SGP4</MEAN_ELEMENT_THEORY></metadata><data><meanElements><EPOCH>2023-10-22T09:59:48.182496</EPOCH><MEAN_MOTION>14.56012684</MEAN_MOTION><ECCENTRICITY>.000115</ECCENTRICITY><INCLINATION>47.0053</INCLINATION><RA_OF_ASC_NODE>342.7446</RA_OF_ASC_NODE><ARG_OF_PERICENTER>30.1982</ARG_OF_PERICENTER><MEAN_ANOMALY>329.8969</MEAN_ANOMALY></meanElements><tleParameters><EPHEMERIS_TYPE>0</EPHEMERIS_TYPE><CLASSIFICATION_TYPE>U</CLASSIFICATION_TYPE><NORAD_CAT_ID>40086</NORAD_CAT_ID><ELEMENT_SET_NO>999</ELEMENT_SET_NO><REV_AT_EPOCH>49313</REV_AT_EPOCH><BSTAR>.29793E-3</BSTAR><MEAN_MOTION_DOT>.1157E-4</MEAN_MOTION_DOT><MEAN_MOTION_DDOT>0</MEAN_MOTION_DDOT></tleParameters></data></segment></body></omm>
<omm id="CCSDS_OMM_VERS" version="2.0">
<header><CREATION_DATE/><ORIGINATOR/></header><body><segment><metadata><OBJECT_NAME>ORBCOMM FM107 [+]</OBJECT_NAME><OBJECT_ID>2014-040B</OBJECT_ID><CENTER_NAME>EARTH</CENTER_NAME><REF_FRAME>TEME</REF_FRAME><TIME_SYSTEM>UTC</TIME_SYSTEM><MEAN_ELEMENT_THEORY>SGP4</MEAN_ELEMENT_THEORY></metadata><data><meanElements><EPOCH>2023-10-21T19:59:45.744576</EPOCH><MEAN_MOTION>14.56012175</MEAN_MOTION><ECCENTRICITY>.0001581</ECCENTRICITY><INCLINATION>47.0074</INCLINATION><RA_OF_ASC_NODE>346.4245</RA_OF_ASC_NODE><ARG_OF_PERICENTER>333.3400</ARG_OF_PERICENTER><MEAN_ANOMALY>26.7403</MEAN_ANOMALY></meanElements><tleParameters><EPHEMERIS_TYPE>0</EPHEMERIS_TYPE><CLASSIFICATION_TYPE>U</CLASSIFICATION_TYPE><NORAD_CAT_ID>40087</NORAD_CAT_ID><ELEMENT_SET_NO>999</ELEMENT_SET_NO><REV_AT_EPOCH>49300</REV_AT_EPOCH><BSTAR>.33882E-3</BSTAR><MEAN_MOTION_DOT>.1339E-4</MEAN_MOTION_DOT><MEAN_MOTION_DDOT>0</MEAN_MOTION_DDOT></tleParameters></data></segment></body></omm>
<omm id="CCSDS_OMM_VERS" version="2.0">
<header><CREATION_DATE/><ORIGINATOR/></header><body><segment><metadata><OBJECT_NAME>ORBCOMM FM106 [-]</OBJECT_NAME><OBJECT_ID>2014-040C</OBJECT_ID><CENTER_NAME>EARTH</CENTER_NAME><REF_FRAME>TEME</REF_FRAME><TIME_SYSTEM>UTC</TIME_SYSTEM><MEAN_ELEMENT_THEORY>SGP4</MEAN_ELEMENT_THEORY></metadata><data><meanElements><EPOCH>2023-10-22T01:54:16.452576</EPOCH><MEAN_MOTION>14.66137267</MEAN_MOTION><ECCENTRICITY>.001776</ECCENTRICITY><INCLINATION>47.0600</INCLINATION><RA_OF_ASC_NODE>213.0587</RA_OF_ASC_NODE><ARG_OF_PERICENTER>147.4705</ARG_OF_PERICENTER><MEAN_ANOMALY>212.7283</MEAN_ANOMALY></meanElements><tleParameters><EPHEMERIS_TYPE>0</EPHEMERIS_TYPE><CLASSIFICATION_TYPE>U</CLASSIFICATION_TYPE><NORAD_CAT_ID>40088</NORAD_CAT_ID><ELEMENT_SET_NO>999</ELEMENT_SET_NO><REV_AT_EPOCH>49494</REV_AT_EPOCH><BSTAR>.34547E-3</BSTAR><MEAN_MOTION_DOT>.1738E-4</MEAN_MOTION_DOT><MEAN_MOTION_DDOT>0</MEAN_MOTION_DDOT></tleParameters></data></segment></body></omm>
<omm id="CCSDS_OMM_VERS" version="2.0">
<header><CREATION_DATE/><ORIGINATOR/></header><body><segment><metadata><OBJECT_NAME>ORBCOMM FM111 [-]</OBJECT_NAME><OBJECT_ID>2014-040D</OBJECT_ID><CENTER_NAME>EARTH</CENTER_NAME><REF_FRAME>TEME</REF_FRAME><TIME_SYSTEM>UTC</TIME_SYSTEM><MEAN_ELEMENT_THEORY>SGP4</MEAN_ELEMENT_THEORY></metadata><data><meanElements><EPOCH>2023-10-21T20:15:36.318240</EPOCH><MEAN_MOTION>14.80188682</MEAN_MOTION><ECCENTRICITY>.003381</ECCENTRICITY><INCLINATION>47.0033</INCLINATION><RA_OF_ASC_NODE>138.4699</RA_OF_ASC_NODE><ARG_OF_PERICENTER>192.4510</ARG_OF_PERICENTER><MEAN_ANOMALY>167.5552</MEAN_ANOMALY></meanElements><tleParameters><EPHEMERIS_TYPE>0</EPHEMERIS_TYPE><CLASSIFICATION_TYPE>U</CLASSIFICATION_TYPE><NORAD_CAT_ID>40089</NORAD_CAT_ID><ELEMENT_SET_NO>999</ELEMENT_SET_NO><REV_AT_EPOCH>50052</REV_AT_EPOCH><BSTAR>.40415E-3</BSTAR><MEAN_MOTION_DOT>.2926E-4</MEAN_MOTION_DOT><MEAN_MOTION_DDOT>0</MEAN_MOTION_DDOT></tleParameters></data></segment></body></omm>
<omm id="CCSDS_OMM_VERS" version="2.0">
<header><CREATION_DATE/><ORIGINATOR/></header><body><segment><metadata><OBJECT_NAME>ORBCOMM FM104 [-]</OBJECT_NAME><OBJECT_ID>2014-040E</OBJECT_ID><CENTER_NAME>EARTH</CENTER_NAME><REF_FRAME>TEME</REF_FRAME><TIME_SYSTEM>UTC</TIME_SYSTEM><MEAN_ELEMENT_THEORY>SGP4</MEAN_ELEMENT_THEORY></metadata><data><meanElements><EPOCH>2023-10-21T12:48:04.923648</EPOCH><MEAN_MOTION>14.54562926</MEAN_MOTION><ECCENTRICITY>.0017628</ECCENTRICITY><INCLINATION>47.0074</INCLINATION><RA_OF_ASC_NODE>14.5367</RA_OF_ASC_NODE><ARG_OF_PERICENTER>322.7408</ARG_OF_PERICENTER><MEAN_ANOMALY>37.2252</MEAN_ANOMALY></meanElements><tleParameters><EPHEMERIS_TYPE>0</EPHEMERIS_TYPE><CLASSIFICATION_TYPE>U</CLASSIFICATION_TYPE><NORAD_CAT_ID>40090</NORAD_CAT_ID><ELEMENT_SET_NO>999</ELEMENT_SET_NO><REV_AT_EPOCH>49253</REV_AT_EPOCH><BSTAR>.29586E-3</BSTAR><MEAN_MOTION_DOT>.1109E-4</MEAN_MOTION_DOT><MEAN_MOTION_DDOT>0</MEAN_MOTION_DDOT></tleParameters></data></segment></body></omm>

</ndm>
